{
"type": "FeatureCollection",
"name": "NewLantai2Door",
"crs": { "type": "name", "properties": { "name": "urn:ogc:def:crs:OGC:1.3:CRS84" } },
"features": [
{ "type": "Feature", "properties": { "id": 101, "type": "Door", "name": "Pintu Lantai 2" }, "geometry": { "type": "MultiPolygon", "coordinates": [ [ [ [ 106.819127261048394, -6.144833618870162 ], [ 106.819127260770045, -6.144833621635779 ], [ 106.819127259650116, -6.14483362418241 ], [ 106.819127257797021, -6.144833626263438 ], [ 106.819127255390271, -6.144833627677333 ], [ 106.819127252662895, -6.144833628287175 ], [ 106.81909915635643, -6.144835446087932 ], [ 106.819099153535234, -6.144835445825193 ], [ 106.819099150936665, -6.144835444701817 ], [ 106.819099148819333, -6.144835442829574 ], [ 106.819099147393857, -6.144835440394742 ], [ 106.819099146802117, -6.144835437639585 ], [ 106.819099123768069, -6.144834997725933 ], [ 106.819099124057615, -6.144834994966363 ], [ 106.819099125184906, -6.144834992428285 ], [ 106.819099127041213, -6.144834990356623 ], [ 106.819099129447352, -6.144834988951296 ], [ 106.819099132171132, -6.144834988347919 ], [ 106.819127229222744, -6.144833218619701 ], [ 106.819127232032727, -6.144833218884481 ], [ 106.819127234621362, -6.144833220003126 ], [ 106.819127236733067, -6.1448332218652 ], [ 106.819127238159396, -6.144833224286868 ], [ 106.819127238759506, -6.14483322702905 ], [ 106.819127261048394, -6.144833618870162 ] ] ], [ [ [ 106.819126540179042, -6.144897700532963 ], [ 106.81912653986609, -6.144897703246557 ], [ 106.819126538742935, -6.144897705739226 ], [ 106.819126536914624, -6.14489770777785 ], [ 106.81912653455214, -6.144897709171778 ], [ 106.819126531876421, -6.144897709790643 ], [ 106.819106399567687, -6.144899214935407 ], [ 106.819106396645338, -6.144899214676173 ], [ 106.819106393962883, -6.14489921349453 ], [ 106.819106391806429, -6.14489921151653 ], [ 106.819106390406048, -6.144899208953166 ], [ 106.819106389911099, -6.144899206077877 ], [ 106.819106387629532, -6.144898791461619 ], [ 106.819106388017303, -6.144898788816456 ], [ 106.819106389174991, -6.144898786403854 ], [ 106.819106390998897, -6.144898784439918 ], [ 106.819106393325626, -6.144898783100569 ], [ 106.81910639594679, -6.144898782505775 ], [ 106.819126514859491, -6.144897295966154 ], [ 106.819126517721145, -6.144897296212549 ], [ 106.819126520358282, -6.144897297344396 ], [ 106.819126522501278, -6.144897299245974 ], [ 106.819126523931075, -6.144897301722869 ], [ 106.819126524501456, -6.144897304521847 ], [ 106.819126540179042, -6.144897700532963 ] ] ], [ [ [ 106.819096349901415, -6.144749714745178 ], [ 106.819096350333325, -6.1447497119778 ], [ 106.819096351605921, -6.144749709479438 ], [ 106.819096353594119, -6.144749707495717 ], [ 106.819096356102449, -6.144749706221664 ], [ 106.819096358884266, -6.144749705782536 ], [ 106.81909748052459, -6.144749705752257 ], [ 106.819097483294499, -6.144749706187365 ], [ 106.819097485794487, -6.14474970745044 ], [ 106.819097487780965, -6.144749709418395 ], [ 106.819097489060326, -6.144749711899459 ], [ 106.819097489507925, -6.144749714651852 ], [ 106.819097503560158, -6.144753620667982 ], [ 106.819097503140199, -6.144753623399107 ], [ 106.819097501900828, -6.144753625871948 ], [ 106.819097499960634, -6.144753627849879 ], [ 106.819097497505297, -6.144753629143636 ], [ 106.819097494769778, -6.144753629629417 ], [ 106.819096372840292, -6.144753653561768 ], [ 106.819096370024667, -6.144753653174615 ], [ 106.81909636747163, -6.144753651932197 ], [ 106.81909636543682, -6.144753649958909 ], [ 106.819096364123965, -6.144753647452317 ], [ 106.819096363664485, -6.144753644663382 ], [ 106.819096349901415, -6.144749714745178 ] ] ], [ [ [ 106.819097455847498, -6.144742898620096 ], [ 106.819097458661901, -6.144742899008372 ], [ 106.819097461213531, -6.144742900251158 ], [ 106.819097463247161, -6.144742902224119 ], [ 106.819097464559277, -6.144742904729874 ], [ 106.819097465018658, -6.144742907517732 ], [ 106.819097486617139, -6.144748911115371 ], [ 106.819097486179572, -6.144748913901066 ], [ 106.819097484890435, -6.144748916412348 ], [ 106.819097482878206, -6.144748918398966 ], [ 106.819097480343373, -6.144748919662954 ], [ 106.819097477538563, -6.144748920078354 ], [ 106.819096355933354, -6.144748908225115 ], [ 106.819096353186268, -6.144748907766676 ], [ 106.819096350712499, -6.144748906493592 ], [ 106.819096348749909, -6.144748904528273 ], [ 106.819096347487175, -6.144748902059683 ], [ 106.819096347045715, -6.144748899325179 ], [ 106.819096326143608, -6.144742930919508 ], [ 106.819096326564079, -6.144742928187709 ], [ 106.819096327804331, -6.144742925714478 ], [ 106.819096329745648, -6.144742923736604 ], [ 106.819096332202122, -6.14474292244345 ], [ 106.819096334938635, -6.144742921958824 ], [ 106.819097455847498, -6.144742898620096 ] ] ], [ [ [ 106.819081578568102, -6.144836583351895 ], [ 106.819081575677359, -6.144836583071081 ], [ 106.819081573027844, -6.144836581887884 ], [ 106.819081570896543, -6.144836579925994 ], [ 106.81908156950621, -6.144836577390513 ], [ 106.819081569002279, -6.1448365745465 ], [ 106.819081563309751, -6.144836103435765 ], [ 106.819081563689096, -6.144836100758259 ], [ 106.819081564856916, -6.144836098316317 ], [ 106.819081566706217, -6.14483609633375 ], [ 106.819081569067478, -6.14483609499226 ], [ 106.819081571724297, -6.144836094414799 ], [ 106.819094846244994, -6.144835258302379 ], [ 106.819094849037782, -6.144835258562772 ], [ 106.819094851613613, -6.14483525966688 ], [ 106.819094853721396, -6.144835261507053 ], [ 106.819094855155569, -6.14483526390387 ], [ 106.819094855776328, -6.144835266623633 ], [ 106.819094885649861, -6.144835713435119 ], [ 106.819094885394662, -6.144835716220451 ], [ 106.819094884285548, -6.144835718790747 ], [ 106.819094882431287, -6.144835720893965 ], [ 106.819094880013679, -6.144835722323864 ], [ 106.819094877269819, -6.144835722940226 ], [ 106.819081578568102, -6.144836583351895 ] ] ] ] } }
]
}
