{
"type": "FeatureCollection",
"name": "NewLantai2Portal",
"crs": { "type": "name", "properties": { "name": "urn:ogc:def:crs:OGC:1.3:CRS84" } },
"features": [
{ "type": "Feature", "properties": { "id": 101, "type": "portal", "name": "Tangga Lantai 1 - Lantai 2" }, "geometry": { "type": "Point", "coordinates": [ 106.819112108367349, -6.14483459928157 ] } },
{ "type": "Feature", "properties": { "id": 102, "type": "portal", "name": "Tangga Lantai 2 - Lantai 3" }, "geometry": { "type": "Point", "coordinates": [ 106.819096365775067, -6.14475164693509 ] } }
]
}
