{
"type": "FeatureCollection",
"name": "NewLantai2Room",
"crs": { "type": "name", "properties": { "name": "urn:ogc:def:crs:EPSG::3857" } },
"features": [
{ "type": "Feature", "properties": { "id": 101, "type": "Room", "name": "Area RnD" }, "geometry": { "type": "MultiPolygon", "coordinates": [ [ [ [ 11891047.405031725764275, -685342.967320185387507 ], [ 11891047.447038734331727, -685355.013681183336303 ], [ 11891039.301095655187964, -685355.529488010681234 ], [ 11891039.248569145798683, -685343.349822779069655 ], [ 11891047.405031725764275, -685342.967320185387507 ] ] ] ] } },
{ "type": "Feature", "properties": { "id": 102, "type": "Room", "name": "Area Toilet" }, "geometry": { "type": "MultiPolygon", "coordinates": [ [ [ [ 11891047.529635842889547, -685342.96147679456044 ], [ 11891050.922726219519973, -685342.802355624502525 ], [ 11891050.931132258847356, -685345.204180610948242 ], [ 11891047.538266096264124, -685345.374238958931528 ], [ 11891047.529635842889547, -685342.96147679456044 ] ] ] ] } },
{ "type": "Feature", "properties": { "id": 103, "type": "Room", "name": "Area Tangga" }, "geometry": { "type": "MultiPolygon", "coordinates": [ [ [ [ 11891047.538412779569626, -685345.415247188182548 ], [ 11891050.931280754506588, -685345.246609677094966 ], [ 11891050.96468416787684, -685354.790837960666977 ], [ 11891047.572710089385509, -685355.005720333545469 ], [ 11891047.538412779569626, -685345.415247188182548 ] ] ] ] } },
{ "type": "Feature", "properties": { "id": 104, "type": "Room", "name": "Area Admin" }, "geometry": { "type": "MultiPolygon", "coordinates": [ [ [ [ 11891039.301372705027461, -685355.593729107175022 ], [ 11891050.964837552979589, -685354.834663853282109 ], [ 11891050.989761501550674, -685361.956087385071442 ], [ 11891039.332547310739756, -685362.82238925434649 ], [ 11891039.301372705027461, -685355.593729107175022 ] ] ] ] } },
{ "type": "Feature", "properties": { "id": 105, "type": "Room", "name": "Area Studio" }, "geometry": { "type": "MultiPolygon", "coordinates": [ [ [ [ 11891039.332782428711653, -685362.876907281344756 ], [ 11891050.989916423335671, -685362.000352685688995 ], [ 11891051.006870562210679, -685366.844592884415761 ], [ 11891039.353990361094475, -685367.794529380276799 ], [ 11891039.332782428711653, -685362.876907281344756 ] ] ] ] } }
]
}
