{
"type": "FeatureCollection",
"name": "NewLantai2Wall",
"crs": { "type": "name", "properties": { "name": "urn:ogc:def:crs:OGC:1.3:CRS84" } },
"features": [
{ "type": "Feature", "properties": { "id": 113, "type": "Wall", "name": "ASD" }, "geometry": { "type": "MultiPolygon", "coordinates": [ [ [ [ 106.819023581033164, -6.144949300538133 ], [ 106.819023579651272, -6.144949300519056 ], [ 106.819022638899227, -6.144730646316203 ], [ 106.819023009100604, -6.144730643237398 ], [ 106.819127880684988, -6.144725916678526 ], [ 106.819128256337635, -6.144725899796439 ], [ 106.819129015669532, -6.144941009073538 ], [ 106.819129014020191, -6.144941009234631 ], [ 106.819128845320492, -6.144941023088084 ], [ 106.819128637936615, -6.144941040118244 ], [ 106.819023581033164, -6.144949667249332 ], [ 106.819023581033164, -6.144949300538133 ] ], [ [ 106.819023868525477, -6.144839737872943 ], [ 106.819081563315294, -6.144836103893896 ], [ 106.819081569002279, -6.1448365745465 ], [ 106.81908156908527, -6.144836575014994 ], [ 106.819023898341442, -6.144840306249959 ], [ 106.819023484890167, -6.144840333812113 ], [ 106.819023764936418, -6.144904896874888 ], [ 106.8191063876329, -6.144898792076238 ], [ 106.819106389911099, -6.144899206077877 ], [ 106.819106390016927, -6.144899206692693 ], [ 106.81902376704852, -6.144905383804763 ], [ 106.819023957562621, -6.144949305735681 ], [ 106.8191286371665, -6.144940821341614 ], [ 106.819128484864891, -6.144897554823297 ], [ 106.819126540166437, -6.144897700214108 ], [ 106.819126524501456, -6.144897304521847 ], [ 106.819126524438829, -6.144897304214528 ], [ 106.819128483473193, -6.144897159466039 ], [ 106.819128259577553, -6.144833554190452 ], [ 106.819127261044088, -6.144833618794491 ], [ 106.819127238759506, -6.14483322702905 ], [ 106.819127238746432, -6.144833226969284 ], [ 106.819128258199683, -6.144833162757736 ], [ 106.819127958131702, -6.144747918093818 ], [ 106.819097479480121, -6.144749424286741 ], [ 106.819097480492701, -6.144749705752258 ], [ 106.819096358884266, -6.144749705782536 ], [ 106.819096358853272, -6.144749705787432 ], [ 106.819096356060115, -6.144748908226456 ], [ 106.819097477538563, -6.144748920078354 ], [ 106.819097477666119, -6.144748920059465 ], [ 106.819097478162448, -6.144749058020041 ], [ 106.819127956797743, -6.144747539136855 ], [ 106.819127881284999, -6.144726087136929 ], [ 106.819097400635556, -6.144727508334316 ], [ 106.819097456003533, -6.144742898641621 ], [ 106.819097455847498, -6.144742898620096 ], [ 106.819096335095409, -6.14474292195556 ], [ 106.819096281297718, -6.144727560524805 ], [ 106.819023010547724, -6.144730976862704 ], [ 106.819023482401377, -6.144839760040194 ], [ 106.819023868525477, -6.144839737872943 ] ] ], [ [ [ 106.819096372840292, -6.144753653561768 ], [ 106.819097494609224, -6.144753629632842 ], [ 106.819097787639706, -6.144835081565189 ], [ 106.81909778766547, -6.144835081982733 ], [ 106.819097787578102, -6.144835081988236 ], [ 106.819097787578102, -6.144835081988251 ], [ 106.819099123773327, -6.14483499782631 ], [ 106.819099146802117, -6.144835437639585 ], [ 106.819099146826701, -6.144835437754066 ], [ 106.81909488564871, -6.144835713447691 ], [ 106.819094885649861, -6.144835713435119 ], [ 106.819094855778189, -6.144835266651365 ], [ 106.819096658100818, -6.144835153129802 ], [ 106.81909665795871, -6.144835112552081 ], [ 106.81909665795871, -6.144835112552075 ], [ 106.819096372678814, -6.144753653539563 ], [ 106.819096372840292, -6.144753653561768 ] ], [ [ 106.819096658653166, -6.144835153094741 ], [ 106.819096658653109, -6.1448351530909 ], [ 106.819096658100818, -6.144835153129802 ], [ 106.819096658653166, -6.144835153094741 ] ] ] ] } }
]
}
