{
"type": "FeatureCollection",
"name": "NewLantai2PoI",
"crs": { "type": "name", "properties": { "name": "urn:ogc:def:crs:OGC:1.3:CRS84" } },
"features": [
{ "type": "Feature", "properties": { "id": 101, "type": "poi", "name": "Meja Tommy" }, "geometry": { "type": "Point", "coordinates": [ 106.819055003891123, -6.144739380523063 ] } },
{ "type": "Feature", "properties": { "id": 102, "type": "poi", "name": "Meja Hardware" }, "geometry": { "type": "Point", "coordinates": [ 106.819030935016016, -6.144756819304747 ] } },
{ "type": "Feature", "properties": { "id": 103, "type": "poi", "name": "Meja Ace" }, "geometry": { "type": "Point", "coordinates": [ 106.819031447119755, -6.144776167441419 ] } },
{ "type": "Feature", "properties": { "id": 104, "type": "poi", "name": "Meja Ivan" }, "geometry": { "type": "Point", "coordinates": [ 106.81903195922348, -6.144792460608597 ] } },
{ "type": "Feature", "properties": { "id": 105, "type": "poi", "name": "Meja Dion" }, "geometry": { "type": "Point", "coordinates": [ 106.819032471327205, -6.144813081647595 ] } },
{ "type": "Feature", "properties": { "id": 106, "type": "poi", "name": "Meja Adi" }, "geometry": { "type": "Point", "coordinates": [ 106.819032727379067, -6.144831411459363 ] } },
{ "type": "Feature", "properties": { "id": 107, "type": "poi", "name": "Lemari ATK" }, "geometry": { "type": "Point", "coordinates": [ 106.819033751586545, -6.144843376752817 ] } },
{ "type": "Feature", "properties": { "id": 108, "type": "poi", "name": "Meja Dede" }, "geometry": { "type": "Point", "coordinates": [ 106.819029398704885, -6.144854069142484 ] } },
{ "type": "Feature", "properties": { "id": 109, "type": "poi", "name": "Meja Rey" }, "geometry": { "type": "Point", "coordinates": [ 106.819030422912334, -6.144874181017705 ] } },
{ "type": "Feature", "properties": { "id": 110, "type": "poi", "name": "Meja Ridwan" }, "geometry": { "type": "Point", "coordinates": [ 106.819030166860458, -6.14489072876257 ] } },
{ "type": "Feature", "properties": { "id": 111, "type": "poi", "name": "Lemari Hardware" }, "geometry": { "type": "Point", "coordinates": [ 106.819121065271631, -6.144859924498641 ] } },
{ "type": "Feature", "properties": { "id": 112, "type": "poi", "name": "Meja Pak Yosep" }, "geometry": { "type": "Point", "coordinates": [ 106.819042969453591, -6.144930952509481 ] } },
{ "type": "Feature", "properties": { "id": 113, "type": "poi", "name": "Pintu LT2" }, "geometry": { "type": "Point", "coordinates": [ 106.819112108367349, -6.14483459928157 ] } },
{ "type": "Feature", "properties": { "id": 114, "type": "poi", "name": "Pintu RnD" }, "geometry": { "type": "Point", "coordinates": [ 106.819088742616131, -6.144836111201648 ] } },
{ "type": "Feature", "properties": { "id": 115, "type": "poi", "name": "Pintu Tangga LT3" }, "geometry": { "type": "Point", "coordinates": [ 106.819096365775067, -6.14475164693509 ] } },
{ "type": "Feature", "properties": { "id": 116, "type": "poi", "name": "Pintu Toilet" }, "geometry": { "type": "Point", "coordinates": [ 106.819096345246848, -6.144745793868296 ] } },
{ "type": "Feature", "properties": { "id": 117, "type": "poi", "name": "Pintu Studio" }, "geometry": { "type": "Point", "coordinates": [ 106.819117064546944, -6.144898003183918 ] } }
]
}
